OBJECT_NAME,OBJECT_ID,EPOCH,MEAN_MOTION,ECCENTRICITY,INCLINATION,RA_OF_ASC_NODE,ARG_OF_PERICENTER,MEAN_ANOMALY,EPHEMERIS_TYPE,CLASSIFICATION_TYPE,NORAD_CAT_ID,ELEMENT_SET_NO,REV_AT_EPOCH,BSTAR,MEAN_MOTION_DOT,MEAN_MOTION_DDOT
STARLINK-34247,2025-167F,2026-06-15T12:31:03.510624,15.30195847,.000114,53.1608,289.7845,91.9631,268.1500,0,U,65083,999,4849,.43054E-3,.12412E-3,0
STARLINK-34601,2025-167G,2026-06-15T12:00:02.000160,15.44792899,.0000964,53.1591,287.4563,95.9257,267.2143,0,U,65084,999,579,-.42225E-1,-.1811596E-1,0
STARLINK-34822,2025-167J,2026-06-15T12:35:01.636800,15.30151226,.0001867,53.1618,292.5962,105.4850,254.6357,0,U,65086,999,4845,-.51106E-3,-.15442E-3,0
STARLINK-34686,2025-167K,2026-06-15T12:30:27.705600,15.30200806,.0001688,53.1591,292.5721,104.6049,255.5139,0,U,65087,999,4845,.8237E-3,.24116E-3,0
STARLINK-34594,2025-167L,2026-06-15T12:25:53.518656,15.30186058,.0001181,53.1606,292.5556,86.2374,273.8761,0,U,65088,999,4845,.39075E-3,.11226E-3,0
STARLINK-34665,2025-167M,2026-06-15T12:21:20.075616,15.30189349,.0001144,53.1592,292.5324,79.5028,280.6102,0,U,65089,999,4845,.67512E-3,.19682E-3,0
STARLINK-34673,2025-167N,2026-06-15T12:16:46.153056,15.30191172,.0000913,53.1589,292.5154,284.3812,75.7087,0,U,65090,999,4845,.43787E-3,.12628E-3,0
STARLINK-34648,2025-167P,2026-06-15T11:44:16.892160,15.49349232,.000131,53.1610,288.1051,55.2027,304.9106,0,U,65091,999,4851,.80693E-3,.44751E-3,0
STARLINK-34640,2025-167Q,2026-06-15T12:10:42.638016,15.30224730,.0001296,53.1600,292.4845,103.4673,256.6472,0,U,65092,999,4845,.60121E-3,.17503E-3,0
STARLINK-34266,2025-167R,2026-06-15T12:00:02.000160,15.49310378,.0001276,53.1594,288.1786,82.1804,275.6571,0,U,65093,999,584,-.36852E-4,-.2497E-4,0
STARLINK-34769,2025-167S,2026-06-15T11:42:34.361280,15.49364580,.0001324,53.1606,288.0979,74.4096,285.7059,0,U,65094,999,4850,.11947E-2,.66695E-3,0
STARLINK-34768,2025-167T,2026-06-15T10:50:51.046944,15.47896845,.0004643,53.1602,287.8696,226.2547,133.8078,0,U,65095,999,4851,.14716E-3,.7356E-4,0
STARLINK-34759,2025-167U,2026-06-15T01:30:09.277632,15.49330984,.00011754,53.1606,289.7069,77.4451,282.6689,0,U,65096,999,4845,.10931042E-2,.60868E-3,0
STARLINK-34741,2025-167V,2026-06-15T12:00:02.000160,15.42601034,.0001524,53.1593,287.4808,65.1168,283.3517,0,U,65097,999,584,-.5436E-1,-.2124002E-1,0
STARLINK-34764,2025-167W,2026-06-15T11:44:58.676064,15.34412002,.0001355,53.1605,290.9585,80.8164,279.2992,0,U,65098,999,4847,.98935E-3,.33211E-3,0
STARLINK-34815,2025-167X,2026-06-14T15:16:32.270304,15.34418637,.0001279,53.1604,294.8782,86.1892,273.9257,0,U,65099,999,4834,.8473E-3,.28376E-3,0
STARLINK-34814,2025-167Y,2026-06-15T12:03:09.717120,15.34394151,.0001263,53.1607,291.0387,108.6893,251.4247,0,U,65100,999,4847,.51038E-3,.16904E-3,0
STARLINK-34285,2025-167Z,2026-06-15T12:33:25.180704,15.34431722,.0001104,53.1610,291.1655,112.3762,247.7357,0,U,65101,999,4847,.92832E-3,.3115E-3,0
STARLINK-34857,2025-167AA,2026-06-15T12:00:02.000160,15.34407733,.0001311,53.1596,287.5157,93.8579,236.9018,0,U,65102,999,579,-.64239E-3,-.22023E-3,0
STARLINK-34887,2025-167AB,2026-06-15T12:42:32.605056,15.34393393,.0001499,53.1618,291.2025,83.8767,276.2406,0,U,65103,999,4847,.81609E-3,.27291E-3,0
STARLINK-34481,2025-167AC,2026-06-15T12:00:02.000160,15.34404753,.0000932,53.1599,287.3077,79.4561,355.8547,0,U,65104,999,589,-.6826E-3,-.23371E-3,0
STARLINK-34545,2025-167AD,2026-06-15T12:00:02.000160,15.34406804,.0000793,53.1597,287.3301,74.4302,349.2525,0,U,65105,999,578,-.69203E-3,-.23689E-3,0
STARLINK-34956,2025-175A,2026-06-15T08:54:09.127008,15.05659485,.0002411,97.3580,37.9293,88.1514,271.9989,0,U,65174,999,4730,.29928E-3,.4265E-4,0
STARLINK-34949,2025-175B,2026-06-15T08:50:09.947616,15.05658637,.000263,97.3584,37.9323,74.4476,285.7041,0,U,65175,999,4734,.26862E-3,.3821E-4,0
STARLINK-34707,2025-175C,2026-06-15T08:46:10.787232,15.05657211,.000297,97.3589,37.9371,87.2983,272.8584,0,U,65176,999,4733,.17227E-3,.243E-4,0
STARLINK-34967,2025-175D,2026-06-15T08:42:11.577600,15.05658591,.0002668,97.3582,37.9410,88.3088,271.8445,0,U,65177,999,4733,.23217E-3,.3295E-4,0
STARLINK-34929,2025-175E,2026-06-15T08:38:12.418080,15.05656543,.0002829,97.3594,37.9455,87.1950,272.9601,0,U,65178,999,4733,.15186E-3,.2135E-4,0
STARLINK-34932,2025-175F,2026-06-15T05:18:49.942368,15.05659934,.0002306,97.3593,37.8271,92.0645,268.0847,0,U,65179,999,4731,.32315E-3,.461E-4,0
STARLINK-34862,2025-175G,2026-06-15T13:13:20.510112,15.05664645,.0002659,97.3576,38.1452,81.0272,279.1256,0,U,65180,999,4736,.31673E-3,.4517E-4,0
STARLINK-34942,2025-175H,2026-06-15T05:22:49.228032,15.05643247,.0002214,97.3589,37.8230,95.0230,265.1250,0,U,65181,999,4728,.20504E-3,.2902E-4,0
