STARLINK-34247          
1 65083U 25167F   26166.52156841  .00012412  00000+0  43054-3 0  9994
2 65083  53.1608 289.7845 0001140  91.9631 268.1500 15.30195847 48495
STARLINK-34601          
1 65084U 25167G   26166.50002315 -.01811596  00000+0 -42225-1 0  9999
2 65084  53.1591 287.4563 0000964  95.9257 267.2143 15.44792899  5794
STARLINK-34822          
1 65086U 25167J   26166.52432450 -.00015442  00000+0 -51106-3 0  9995
2 65086  53.1618 292.5962 0001867 105.4850 254.6357 15.30151226 48450
STARLINK-34686          
1 65087U 25167K   26166.52115400  .00024116  00000+0  82370-3 0  9992
2 65087  53.1591 292.5721 0001688 104.6049 255.5139 15.30200806 48453
STARLINK-34594          
1 65088U 25167L   26166.51798054  .00011226  00000+0  39075-3 0  9996
2 65088  53.1606 292.5556 0001181  86.2374 273.8761 15.30186058 48457
STARLINK-34665          
1 65089U 25167M   26166.51481569  .00019682  00000+0  67512-3 0  9998
2 65089  53.1592 292.5324 0001144  79.5028 280.6102 15.30189349 48456
STARLINK-34673          
1 65090U 25167N   26166.51164529  .00012628  00000+0  43787-3 0  9995
2 65090  53.1589 292.5154 0000913 284.3812  75.7087 15.30191172 48457
STARLINK-34648          
1 65091U 25167P   26166.48908440  .00044751  00000+0  80693-3 0  9999
2 65091  53.1610 288.1051 0001310  55.2027 304.9106 15.49349232 48513
STARLINK-34640          
1 65092U 25167Q   26166.50743794  .00017503  00000+0  60121-3 0  9991
2 65092  53.1600 292.4845 0001296 103.4673 256.6472 15.30224730 48455
STARLINK-34266          
1 65093U 25167R   26166.50002315 -.00002497  00000+0 -36852-4 0  9992
2 65093  53.1594 288.1786 0001276  82.1804 275.6571 15.49310378  5842
STARLINK-34769          
1 65094U 25167S   26166.48789770  .00066695  00000+0  11947-2 0  9991
2 65094  53.1606 288.0979 0001324  74.4096 285.7059 15.49364580 48508
STARLINK-34768          
1 65095U 25167T   26166.45197971  .00007356  00000+0  14716-3 0  9992
2 65095  53.1602 287.8696 0004643 226.2547 133.8078 15.47896845 48510
STARLINK-34759          
1 65096U 25167U   26166.06260738  .00060868  00000+0  10931-2 0  9993
2 65096  53.1606 289.7069 0001175  77.4451 282.6689 15.49330984 48450
STARLINK-34741          
1 65097U 25167V   26166.50002315 -.02124002  00000+0 -54360-1 0  9996
2 65097  53.1593 287.4808 0001524  65.1168 283.3517 15.42601034  5843
STARLINK-34764          
1 65098U 25167W   26166.48956801  .00033211  00000+0  98935-3 0  9997
2 65098  53.1605 290.9585 0001355  80.8164 279.2992 15.34412002 48474
STARLINK-34815          
1 65099U 25167X   26165.63648461  .00028376  00000+0  84730-3 0  9998
2 65099  53.1604 294.8782 0001279  86.1892 273.9257 15.34418637 48349
STARLINK-34814          
1 65100U 25167Y   26166.50219580  .00016904  00000+0  51038-3 0  9993
2 65100  53.1607 291.0387 0001263 108.6893 251.4247 15.34394151 48477
STARLINK-34285          
1 65101U 25167Z   26166.52320811  .00031150  00000+0  92832-3 0  9993
2 65101  53.1610 291.1655 0001104 112.3762 247.7357 15.34431722 48478
STARLINK-34857          
1 65102U 25167AA  26166.50002315 -.00022023  00000+0 -64239-3 0  9999
2 65102  53.1596 287.5157 0001311  93.8579 236.9018 15.34407733  5794
STARLINK-34887          
1 65103U 25167AB  26166.52954404  .00027291  00000+0  81609-3 0  9997
2 65103  53.1618 291.2025 0001499  83.8767 276.2406 15.34393393 48477
STARLINK-34481          
1 65104U 25167AC  26166.50002315 -.00023371  00000+0 -68260-3 0  9996
2 65104  53.1599 287.3077 0000932  79.4561 355.8547 15.34404753  5895
STARLINK-34545          
1 65105U 25167AD  26166.50002315 -.00023689  00000+0 -69203-3 0  9997
2 65105  53.1597 287.3301 0000793  74.4302 349.2525 15.34406804  5787
STARLINK-34956          
1 65174U 25175A   26166.37093897  .00004265  00000+0  29928-3 0  9999
2 65174  97.3580  37.9293 0002411  88.1514 271.9989 15.05659485 47302
STARLINK-34949          
1 65175U 25175B   26166.36817069  .00003821  00000+0  26862-3 0  9995
2 65175  97.3584  37.9323 0002630  74.4476 285.7041 15.05658637 47343
STARLINK-34707          
1 65176U 25175C   26166.36540263  .00002430  00000+0  17227-3 0  9995
2 65176  97.3589  37.9371 0002970  87.2983 272.8584 15.05657211 47339
STARLINK-34967          
1 65177U 25175D   26166.36263400  .00003295  00000+0  23217-3 0  9997
2 65177  97.3582  37.9410 0002668  88.3088 271.8445 15.05658591 47336
STARLINK-34929          
1 65178U 25175E   26166.35986595  .00002135  00000+0  15186-3 0  9992
2 65178  97.3594  37.9455 0002829  87.1950 272.9601 15.05656543 47334
STARLINK-34932          
1 65179U 25175F   26166.22141137  .00004610  00000+0  32315-3 0  9997
2 65179  97.3593  37.8271 0002306  92.0645 268.0847 15.05659934 47318
STARLINK-34862          
1 65180U 25175G   26166.55093183  .00004517  00000+0  31673-3 0  9994
2 65180  97.3576  38.1452 0002659  81.0272 279.1256 15.05664645 47368
STARLINK-34942          
1 65181U 25175H   26166.22418088  .00002902  00000+0  20504-3 0  9991
2 65181  97.3589  37.8230 0002214  95.0230 265.1250 15.05643247 47284
